HTV-X1                  
1 66174U 25241A   26086.84438559  .00002710  00000+0  96895-4 0  9996
2 66174  51.6384 345.5888 0007354 241.4372 118.5870 15.32425085 23725
SZ-21 MODULE            
1 66515U 25246C   26086.70196654  .00037039  00000+0  30140-3 0  9994
2 66515  41.4743  92.3645 0001454 209.3733 150.7028 15.69915920 20909
SHENZHOU-22             
1 66645U 25272A   26086.81975154  .00016258  00000+0  18751-3 0  9993
2 66645  41.4669  97.7682 0004161  40.1011 320.0134 15.61560654280560
SOYUZ-MS 28             
1 66664U 25275A   26086.84204457  .00011920  00000+0  22728-3 0  9991
2 66664  51.6344 342.6225 0006212 240.1567 119.8804 15.48591753559203
DUPLEX                  
1 66906U 98067XS  26086.30327946  .00029604  00000+0  40157-3 0  9993
2 66906  51.6305 341.2773 0002793 193.7351 166.3565 15.57391828 17870
ISS OBJECT XT           
1 66907U 98067XT  26086.06187320  .00219962  00000+0  13800-2 0  9999
2 66907  51.6250 336.6305 0005739 192.2616 167.8244 15.75548676 17910
ISS OBJECT XU           
1 66908U 98067XU  26086.05835702  .00230149  00000+0  14272-2 0  9997
2 66908  51.6238 336.6028 0005927 191.8620 168.2241 15.75783311 17917
SILVERSAT               
1 66909U 98067XV  26086.39718512  .00285869  00000+0  13988-2 0  9996
2 66909  51.6218 333.6030 0006751 200.0610 160.0127 15.80899040 17987
ISS OBJECT XW           
1 66910U 98067XW  26086.38482501  .00170121  00000+0  11341-2 0  9998
2 66910  51.6240 335.0299 0006156 192.3775 167.7073 15.74302538 17967
ISS OBJECT XX           
1 66911U 98067XX  26086.84829310  .00439339  00000+0  15432-2 0  9997
2 66911  51.6197 329.8299 0008540 207.5646 152.4906 15.87462812 18069
ISS OBJECT XY           
1 66912U 98067XY  26086.39215784  .00098975  00000+0  89628-3 0  9998
2 66912  51.6270 337.3587 0004178 191.2645 168.8258 15.67254502 17925
KNACKSAT-2              
1 67683U 98067XZ  26086.42854591  .00036813  00000+0  57723-3 0  9997
2 67683  51.6325 343.6129 0009914 250.0621 109.9301 15.53279398  7542
